COSMOS 2426 (717)       
1 29671U 06062B   20077.56627456  .00000060  00000-0  10000-3 0  9996
2 29671  64.9996 271.0159 0019718 169.7546 192.9030  2.12962356102945
COSMOS 2433 (720)       
1 32275U 07052A   20077.34238186 -.00000058  00000-0  10000-3 0  9992
2 32275  65.9533  31.9883 0004781 275.9174   7.8738  2.13104308 96447
COSMOS 2432 (719)       
1 32276U 07052B   20076.93852440 -.00000055  00000-0  10000-3 0  9999
2 32276  65.9661  32.0904 0012655 324.7616 319.5890  2.13103657 96436
COSMOS 2434 (721)       
1 32393U 07065A   20077.36801704  .00000059  00000-0  00000-0 0  9997
2 32393  64.6054 269.5776 0005207  83.6927 107.2303  2.13102887 95156
COSMOS 2436 (723)       
1 32395U 07065C   20077.19921027  .00000059  00000-0  10000-3 0  9995
2 32395  64.6183 269.6326 0015311   7.9646 189.7235  2.13102954 95083
COSMOS 2456 (730)       
1 36111U 09070A   20077.50748782 -.00000028  00000-0  00000-0 0  9996
2 36111  64.2192 149.2406 0004410 311.8923 159.4229  2.13102761 79821
COSMOS 2457 (733)       
1 36112U 09070B   20077.54250844 -.00000028  00000-0  00000-0 0  9998
2 36112  64.2005 149.1367 0005215 173.9067  87.9945  2.13101424 79825
COSMOS 2459 (731)       
1 36400U 10007A   20077.10923418 -.00000059  00000-0  10000-3 0  9994
2 36400  65.8585  30.9797 0027139 346.3530 333.6593  2.13105124 78166
COSMOS 2461 (735)       
1 36401U 10007B   20077.37235846 -.00000060  00000-0  10000-3 0  9997
2 36401  65.8499  30.9410 0006098  43.2585  27.7582  2.13102026 78175
COSMOS 2460 (732)       
1 36402U 10007C   20077.41131095 -.00000060  00000-0  10000-3 0  9994
2 36402  65.8406  30.8985 0002356 301.5315 198.6790  2.13101435 78176
COSMOS 2464 (736)       
1 37139U 10041C   20077.06722265  .00000058  00000-0  00000-0 0  9998
2 37139  64.2092 269.0736 0027774  14.5216 169.9389  2.13100711 74234
COSMOS 2474 (742)       
1 37829U 11055A   20077.52404814 -.00000028  00000-0  00000-0 0  9996
2 37829  64.5382 150.2281 0009642 246.3302  92.8652  2.13101698 65812
COSMOS 2476 (744)       
1 37867U 11064A   20077.40222894 -.00000028  00000-0  00000+0 0  9990
2 37867  64.5177 150.2761 0019908 238.9614  52.9979  2.13101910 65162
COSMOS 2477 (745)       
1 37868U 11064B   20077.37430706 -.00000028  00000-0  00000-0 0  9991
2 37868  64.5266 150.3334 0017551 240.0699 209.0179  2.13101746 65128
COSMOS 2475 (743)       
1 37869U 11064C   20077.20064745 -.00000028  00000-0  00000+0 0  9999
2 37869  64.5328 150.3384 0021630 262.0771  11.0902  2.13101843 65124
COSMOS 2485 (747)       
1 39155U 13019A   20077.39983760 -.00000028  00000-0  00000-0 0  9999
2 39155  64.6864 150.5250 0020393 234.4845 100.2504  2.13101868 53633
COSMOS 2492 (754)       
1 39620U 14012A   20077.27980122 -.00000060  00000-0  10000-3 0  9996
2 39620  65.7296  30.7005 0015875 321.7980 315.9532  2.13103311 46584
COSMOS 2500 (755)       
1 40001U 14032A   20077.30499211 -.00000061  00000-0  00000+0 0  9997
2 40001  65.6714  30.6213 0006462 228.6461 289.1804  2.13102642 44807
COSMOS 2501 (702K)      
1 40315U 14075A   20077.42933455  .00000057  00000-0  00000+0 0  9992
2 40315  63.9271 270.0419 0014793 204.4775 204.4565  2.13098599 41219
COSMOS 2514 (751)       
1 41330U 16008A   20077.33327029 -.00000061  00000-0  00000-0 0  9999
2 41330  65.4732  30.5153 0010125 228.9911 132.7801  2.13103056 31971
COSMOS 2516 (753)       
1 41554U 16032A   20077.50410240  .00000058  00000-0  00000-0 0  9996
2 41554  64.1511 270.0838 0010238 214.6538 168.8879  2.13101743 29583
COSMOS 2522 (752)       
1 42939U 17055A   20077.41108469  .00000058  00000-0  00000-0 0  9997
2 42939  64.3790 270.2397 0005042 252.0176 286.7272  2.13101989 19336
COSMOS 2527 (756)       
1 43508U 18053A   20077.22792141 -.00000028  00000-0  00000-0 0  9992
2 43508  64.8502 150.3596 0008070 236.3417 193.5480  2.13102468 13626
COSMOS 2529 (757)       
1 43687U 18086A   20077.41477741  .00000059  00000-0  00000+0 0  9995
2 43687  64.6019 270.3405 0007890 281.2170 215.9739  2.13101752 10641
COSMOS 2534 (758)       
1 44299U 19030A   20077.57600998  .00000059  00000-0  00000-0 0  9995
2 44299  64.6666 270.1377 0011684 299.2991  96.6770  2.13101974  6292
